CCSDS_OMM_VERS = 2.0
CREATION_DATE  = 
ORIGINATOR     = 

OBJECT_NAME    = COSMOS 2058
OBJECT_ID      = 1990-010A
CENTER_NAME    = EARTH
REF_FRAME      = TEME
TIME_SYSTEM    = UTC
MEAN_ELEMENT_THEORY = SGP/SGP4

EPOCH          = 2026-03-19T23:26:03.887232
MEAN_MOTION    = 15.11407936
ECCENTRICITY   = .00079813
INCLINATION    = 82.4675
RA_OF_ASC_NODE = 37.2908
ARG_OF_PERICENTER = 307.7366
MEAN_ANOMALY   = 52.3140

EPHEMERIS_TYPE = 0
CLASSIFICATION_TYPE = U
NORAD_CAT_ID   = 20465
ELEMENT_SET_NO = 999
REV_AT_EPOCH   = 94379
BSTAR          = .22176166E-3
MEAN_MOTION_DOT = .3775E-4
MEAN_MOTION_DDOT = 0

CCSDS_OMM_VERS = 2.0
CREATION_DATE  = 
ORIGINATOR     = 

OBJECT_NAME    = SL-14 R/B
OBJECT_ID      = 1990-010B
CENTER_NAME    = EARTH
REF_FRAME      = TEME
TIME_SYSTEM    = UTC
MEAN_ELEMENT_THEORY = SGP/SGP4

EPOCH          = 2026-03-20T00:08:55.389696
MEAN_MOTION    = 14.83577859
ECCENTRICITY   = .0018329
INCLINATION    = 82.4987
RA_OF_ASC_NODE = 257.6950
ARG_OF_PERICENTER = 265.6455
MEAN_ANOMALY   = 94.2665

EPHEMERIS_TYPE = 0
CLASSIFICATION_TYPE = U
NORAD_CAT_ID   = 20466
ELEMENT_SET_NO = 999
REV_AT_EPOCH   = 93001
BSTAR          = .45621557E-4
MEAN_MOTION_DOT = .4E-5
MEAN_MOTION_DDOT = 0

CCSDS_OMM_VERS = 2.0
CREATION_DATE  = 
ORIGINATOR     = 

OBJECT_NAME    = SL-14 R/B
OBJECT_ID      = 1990-018B
CENTER_NAME    = EARTH
REF_FRAME      = TEME
TIME_SYSTEM    = UTC
MEAN_ELEMENT_THEORY = SGP/SGP4

EPOCH          = 2026-03-19T19:57:13.776480
MEAN_MOTION    = 14.82155178
ECCENTRICITY   = .0017456
INCLINATION    = 82.5221
RA_OF_ASC_NODE = 213.6111
ARG_OF_PERICENTER = 61.3004
MEAN_ANOMALY   = 298.9962

EPHEMERIS_TYPE = 0
CLASSIFICATION_TYPE = U
NORAD_CAT_ID   = 20511
ELEMENT_SET_NO = 999
REV_AT_EPOCH   = 92408
BSTAR          = .50160676E-4
MEAN_MOTION_DOT = .424E-5
MEAN_MOTION_DDOT = 0

CCSDS_OMM_VERS = 2.0
CREATION_DATE  = 
ORIGINATOR     = 

OBJECT_NAME    = HST
OBJECT_ID      = 1990-037B
CENTER_NAME    = EARTH
REF_FRAME      = TEME
TIME_SYSTEM    = UTC
MEAN_ELEMENT_THEORY = SGP/SGP4

EPOCH          = 2026-03-19T23:46:35.087232
MEAN_MOTION    = 15.29637314
ECCENTRICITY   = .00015384
INCLINATION    = 28.4725
RA_OF_ASC_NODE = 329.7224
ARG_OF_PERICENTER = 237.6208
MEAN_ANOMALY   = 122.4239

EPHEMERIS_TYPE = 0
CLASSIFICATION_TYPE = U
NORAD_CAT_ID   = 20580
ELEMENT_SET_NO = 999
REV_AT_EPOCH   = 77489
BSTAR          = .22019149E-3
MEAN_MOTION_DOT = .6738E-4
MEAN_MOTION_DDOT = 0

CCSDS_OMM_VERS = 2.0
CREATION_DATE  = 
ORIGINATOR     = 

OBJECT_NAME    = SL-16 R/B
OBJECT_ID      = 1990-046B
CENTER_NAME    = EARTH
REF_FRAME      = TEME
TIME_SYSTEM    = UTC
MEAN_ELEMENT_THEORY = SGP/SGP4

EPOCH          = 2026-03-20T05:31:36.327648
MEAN_MOTION    = 14.15012018
ECCENTRICITY   = .00162107
INCLINATION    = 70.9954
RA_OF_ASC_NODE = 275.7753
ARG_OF_PERICENTER = 285.6681
MEAN_ANOMALY   = 74.2653

EPHEMERIS_TYPE = 0
CLASSIFICATION_TYPE = U
NORAD_CAT_ID   = 20625
ELEMENT_SET_NO = 999
REV_AT_EPOCH   = 84988
BSTAR          = .62199026E-4
MEAN_MOTION_DOT = .73E-6
MEAN_MOTION_DDOT = 0

CCSDS_OMM_VERS = 2.0
CREATION_DATE  = 
ORIGINATOR     = 

OBJECT_NAME    = COSMOS 2084
OBJECT_ID      = 1990-055A
CENTER_NAME    = EARTH
REF_FRAME      = TEME
TIME_SYSTEM    = UTC
MEAN_ELEMENT_THEORY = SGP/SGP4

EPOCH          = 2026-03-20T00:23:01.933440
MEAN_MOTION    = 15.05704406
ECCENTRICITY   = .00155022
INCLINATION    = 62.7890
RA_OF_ASC_NODE = 300.3574
ARG_OF_PERICENTER = 192.8680
MEAN_ANOMALY   = 167.2027

EPHEMERIS_TYPE = 0
CLASSIFICATION_TYPE = U
NORAD_CAT_ID   = 20663
ELEMENT_SET_NO = 999
REV_AT_EPOCH   = 93787
BSTAR          = .1415164E-3
MEAN_MOTION_DOT = .1858E-4
MEAN_MOTION_DDOT = 0

CCSDS_OMM_VERS = 2.0
CREATION_DATE  = 
ORIGINATOR     = 

OBJECT_NAME    = SL-6 R/B(2)
OBJECT_ID      = 1990-055D
CENTER_NAME    = EARTH
REF_FRAME      = TEME
TIME_SYSTEM    = UTC
MEAN_ELEMENT_THEORY = SGP/SGP4

EPOCH          = 2026-03-19T19:31:06.838176
MEAN_MOTION    = 15.03641990
ECCENTRICITY   = .00264532
INCLINATION    = 62.7827
RA_OF_ASC_NODE = 219.4212
ARG_OF_PERICENTER = 349.4230
MEAN_ANOMALY   = 10.6310

EPHEMERIS_TYPE = 0
CLASSIFICATION_TYPE = U
NORAD_CAT_ID   = 20666
ELEMENT_SET_NO = 999
REV_AT_EPOCH   = 93971
BSTAR          = .14531485E-3
MEAN_MOTION_DOT = .181E-4
MEAN_MOTION_DDOT = 0

CCSDS_OMM_VERS = 2.0
CREATION_DATE  = 
ORIGINATOR     = 

OBJECT_NAME    = SL-8 R/B
OBJECT_ID      = 1990-078B
CENTER_NAME    = EARTH
REF_FRAME      = TEME
TIME_SYSTEM    = UTC
MEAN_ELEMENT_THEORY = SGP/SGP4

EPOCH          = 2026-03-20T04:35:27.989952
MEAN_MOTION    = 14.89374972
ECCENTRICITY   = .03600912
INCLINATION    = 82.9006
RA_OF_ASC_NODE = 241.8616
ARG_OF_PERICENTER = 338.6324
MEAN_ANOMALY   = 20.0170

EPHEMERIS_TYPE = 0
CLASSIFICATION_TYPE = U
NORAD_CAT_ID   = 20775
ELEMENT_SET_NO = 999
REV_AT_EPOCH   = 81086
BSTAR          = .30993677E-3
MEAN_MOTION_DOT = .10495E-3
MEAN_MOTION_DDOT = 0

CCSDS_OMM_VERS = 2.0
CREATION_DATE  = 
ORIGINATOR     = 

OBJECT_NAME    = SL-8 R/B
OBJECT_ID      = 1991-006B
CENTER_NAME    = EARTH
REF_FRAME      = TEME
TIME_SYSTEM    = UTC
MEAN_ELEMENT_THEORY = SGP/SGP4

EPOCH          = 2026-03-20T07:14:44.483136
MEAN_MOTION    = 13.77495628
ECCENTRICITY   = .0022421
INCLINATION    = 82.9457
RA_OF_ASC_NODE = 162.1567
ARG_OF_PERICENTER = 9.2583
MEAN_ANOMALY   = 51.8226

EPHEMERIS_TYPE = 0
CLASSIFICATION_TYPE = U
NORAD_CAT_ID   = 21088
ELEMENT_SET_NO = 999
REV_AT_EPOCH   = 76553
BSTAR          = .69792433E-4
MEAN_MOTION_DOT = .85E-6
MEAN_MOTION_DDOT = 0

CCSDS_OMM_VERS = 2.0
CREATION_DATE  = 
ORIGINATOR     = 

OBJECT_NAME    = OKEAN-3
OBJECT_ID      = 1991-039A
CENTER_NAME    = EARTH
REF_FRAME      = TEME
TIME_SYSTEM    = UTC
MEAN_ELEMENT_THEORY = SGP/SGP4

EPOCH          = 2026-03-20T04:26:27.145824
MEAN_MOTION    = 15.04870461
ECCENTRICITY   = .00128592
INCLINATION    = 82.5188
RA_OF_ASC_NODE = 326.6770
ARG_OF_PERICENTER = 297.8178
MEAN_ANOMALY   = 62.1744

EPHEMERIS_TYPE = 0
CLASSIFICATION_TYPE = U
NORAD_CAT_ID   = 21397
ELEMENT_SET_NO = 999
REV_AT_EPOCH   = 86661
BSTAR          = .11452243E-3
MEAN_MOTION_DOT = .1649E-4
MEAN_MOTION_DDOT = 0

CCSDS_OMM_VERS = 2.0
CREATION_DATE  = 
ORIGINATOR     = 

OBJECT_NAME    = COSMOS 2151
OBJECT_ID      = 1991-042A
CENTER_NAME    = EARTH
REF_FRAME      = TEME
TIME_SYSTEM    = UTC
MEAN_ELEMENT_THEORY = SGP/SGP4

EPOCH          = 2026-03-20T05:20:13.464384
MEAN_MOTION    = 15.00146240
ECCENTRICITY   = .00132767
INCLINATION    = 82.4934
RA_OF_ASC_NODE = 73.5126
ARG_OF_PERICENTER = 31.2439
MEAN_ANOMALY   = 328.9572

EPHEMERIS_TYPE = 0
CLASSIFICATION_TYPE = U
NORAD_CAT_ID   = 21422
ELEMENT_SET_NO = 999
REV_AT_EPOCH   = 86477
BSTAR          = .12688391E-3
MEAN_MOTION_DOT = .1613E-4
MEAN_MOTION_DDOT = 0

CCSDS_OMM_VERS = 2.0
CREATION_DATE  = 
ORIGINATOR     = 

OBJECT_NAME    = SL-14 R/B
OBJECT_ID      = 1991-042B
CENTER_NAME    = EARTH
REF_FRAME      = TEME
TIME_SYSTEM    = UTC
MEAN_ELEMENT_THEORY = SGP/SGP4

EPOCH          = 2026-03-19T21:16:40.473120
MEAN_MOTION    = 14.81839825
ECCENTRICITY   = .0016449
INCLINATION    = 82.4941
RA_OF_ASC_NODE = 210.6213
ARG_OF_PERICENTER = 203.1124
MEAN_ANOMALY   = 156.9352

EPHEMERIS_TYPE = 0
CLASSIFICATION_TYPE = U
NORAD_CAT_ID   = 21423
ELEMENT_SET_NO = 999
REV_AT_EPOCH   = 85458
BSTAR          = .51488E-4
MEAN_MOTION_DOT = .431E-5
MEAN_MOTION_DDOT = 0

