COSMOS 2058             
1 20465U 90010A   26078.97643388  .00003775  00000+0  22176-3 0  9990
2 20465  82.4675  37.2908 0007981 307.7366  52.3140 15.11407936943791
SL-14 R/B               
1 20466U 90010B   26079.00619664  .00000400  00000+0  45622-4 0  9990
2 20466  82.4987 257.6950 0018329 265.6455  94.2665 14.83577859930010
SL-14 R/B               
1 20511U 90018B   26078.83140945  .00000424  00000+0  50161-4 0  9990
2 20511  82.5221 213.6111 0017456  61.3004 298.9962 14.82155178924083
HST                     
1 20580U 90037B   26078.99068388  .00006738  00000+0  22019-3 0  9998
2 20580  28.4725 329.7224 0001538 237.6208 122.4239 15.29637314774898
SL-16 R/B               
1 20625U 90046B   26079.23028157  .00000073  00000+0  62199-4 0  9996
2 20625  70.9954 275.7753 0016210 285.6681  74.2653 14.15012018849880
COSMOS 2084             
1 20663U 90055A   26079.01599460  .00001858  00000+0  14152-3 0  9991
2 20663  62.7890 300.3574 0015502 192.8680 167.2027 15.05704406937871
SL-6 R/B(2)             
1 20666U 90055D   26078.81327359  .00001810  00000+0  14531-3 0  9996
2 20666  62.7827 219.4212 0026453 349.4230  10.6310 15.03641990939718
SL-8 R/B                
1 20775U 90078B   26079.19129618  .00010495  00000+0  30994-3 0  9992
2 20775  82.9006 241.8616 0360091 338.6324  20.0170 14.89374972810861
SL-8 R/B                
1 21088U 91006B   26079.30190374  .00000085  00000+0  69792-4 0  9995
2 21088  82.9457 162.1567 0022421   9.2583  51.8226 13.77495628765534
OKEAN-3                 
1 21397U 91039A   26079.18503641  .00001649  00000+0  11452-3 0  9991
2 21397  82.5188 326.6770 0012859 297.8178  62.1744 15.04870461866611
COSMOS 2151             
1 21422U 91042A   26079.22237806  .00001613  00000+0  12688-3 0  9999
2 21422  82.4934  73.5126 0013276  31.2439 328.9572 15.00146240864779
SL-14 R/B               
1 21423U 91042B   26078.88657955  .00000431  00000+0  51488-4 0  9991
2 21423  82.4941 210.6213 0016449 203.1124 156.9352 14.81839825854584
